[
    {
        "Altitude(m)": 557154.2624918666,
        "Argument of Periapsis(deg)": 0.033114955553567506,
        "Eccentricity": 0.0,
        "Inclination(deg)": 53.0,
        "Latitude(deg)": 40.96792611346268,
        "Longitude(deg)": 30.415394625591798,
        "Mean Anomaly(deg)": -234.996535662112,
        "RAAN(deg)": 354.9507168426401,
        "Satellite Name": "Starlink Shell 1 1566",
        "Satellite Number": 1566,
        "Semi-Major Axis(m)": 6931778.249405717,
        "Time(s)": 950
    },
    {
        "Altitude(m)": 557071.9614108832,
        "Argument of Periapsis(deg)": 0.03346353403307874,
        "Eccentricity": 0.0,
        "Inclination(deg)": 53.0,
        "Latitude(deg)": 40.584962004376635,
        "Longitude(deg)": 31.029043465005216,
        "Mean Anomaly(deg)": -234.36970445855536,
        "RAAN(deg)": 354.9501980725626,
        "Satellite Name": "Starlink Shell 1 1566",
        "Satellite Number": 1566,
        "Semi-Major Axis(m)": 6931778.249405717,
        "Time(s)": 960
    },
    {
        "Altitude(m)": 556989.3453711692,
        "Argument of Periapsis(deg)": 0.03381211251258998,
        "Eccentricity": 0.0,
        "Inclination(deg)": 53.0,
        "Latitude(deg)": 40.198301275137766,
        "Longitude(deg)": 31.635235481473917,
        "Mean Anomaly(deg)": -233.7428732549987,
        "RAAN(deg)": 354.94967930248515,
        "Satellite Name": "Starlink Shell 1 1566",
        "Satellite Number": 1566,
        "Semi-Major Axis(m)": 6931778.249405717,
        "Time(s)": 970
    },
    {
        "Altitude(m)": 556906.4678052434,
        "Argument of Periapsis(deg)": 0.034160690992101214,
        "Eccentricity": 0.0,
        "Inclination(deg)": 53.0,
        "Latitude(deg)": 39.80803407803561,
        "Longitude(deg)": 32.2340866919451,
        "Mean Anomaly(deg)": -233.1160420514419,
        "RAAN(deg)": 354.94916053240763,
        "Satellite Name": "Starlink Shell 1 1566",
        "Satellite Number": 1566,
        "Semi-Major Axis(m)": 6931778.249405717,
        "Time(s)": 980
    },
    {
        "Altitude(m)": 556823.3824886132,
        "Argument of Periapsis(deg)": 0.034509269471612446,
        "Eccentricity": 0.0,
        "Inclination(deg)": 53.0,
        "Latitude(deg)": 39.41424872094345,
        "Longitude(deg)": 32.825714868724404,
        "Mean Anomaly(deg)": -232.4892108478852,
        "RAAN(deg)": 354.94864176233017,
        "Satellite Name": "Starlink Shell 1 1566",
        "Satellite Number": 1566,
        "Semi-Major Axis(m)": 6931778.249405717,
        "Time(s)": 990
    }
]